NORAD_CAT_ID,OBJECT_NAME,OBJECT_TYPE,EPOCH,MEAN_MOTION,ECCENTRICITY,INCLINATION,RA_OF_ASC_NODE,ARG_OF_PERICENTER,MEAN_ANOMALY,BSTAR,MEAN_MOTION_DOT,MEAN_MOTION_DDOT,TLE_LINE0,TLE_LINE1,TLE_LINE2,SEMIMAJOR_AXIS,PERIOD,APOGEE,PERIGEE,DECAYED
52366.0,STARLINK-3808,PAYLOAD,2024-04-22 22:11:42,15.08829972,0.0001037,53.2188,27.6364,121.7415,238.3679,0.00010978,1.459e-05,0.0,0 STARLINK-3808,1 52366U 22045AM  24113.92479471  .00001459  00000-0  10978-3 0  9996,2 52366  53.2188  27.6364 0001037 121.7415 238.3679 15.08829972112396,6917.911,95.438,540.493,539.059,0.0
52366.0,STARLINK-3808,PAYLOAD,2024-04-23 01:22:28,15.08833846,0.0001397,53.2191,27.0414,126.9228,233.1892,0.00019225,2.773e-05,0.0,0 STARLINK-3808,1 52366U 22045AM  24114.05727386  .00002773  00000-0  19225-3 0  9996,2 52366  53.2191  27.0414 0001397 126.9228 233.1892 15.08833846112416,6917.899,95.438,540.731,538.798,0.0
52366.0,STARLINK-3808,PAYLOAD,2024-04-23 22:02:29,15.08839015,0.0001237,53.2197,23.1768,103.302,256.811,-3.2516e-05,-8.05e-06,0.0,0 STARLINK-3808,1 52366U 22045AM  24114.91839520 -.00000805  00000-0 -32516-4 0  9990,2 52366  53.2197  23.1768 0001237 103.3020 256.8110 15.08839015112546,6917.883,95.438,540.604,538.893,0.0
52366.0,STARLINK-3808,PAYLOAD,2024-04-24 02:48:37,15.08860913,0.0001408,53.2191,22.2824,97.8151,262.3001,0.00028206,4.206e-05,0.0,0 STARLINK-3808,1 52366U 22045AM  24115.11710480  .00004206  00000-0  28206-3 0  9993,2 52366  53.2191  22.2824 0001408  97.8151 262.3001 15.08860913112570,6917.816,95.436,540.655,538.707,0.0
52366.0,STARLINK-3808,PAYLOAD,2024-04-24 21:53:16,15.08844172,0.0001333,53.2185,18.7124,102.0574,258.0568,5.8508e-05,6.43e-06,0.0,0 STARLINK-3808,1 52366U 22045AM  24115.91199085  .00000643  00000-0  58508-4 0  9993,2 52366  53.2185  18.7124 0001333 102.0574 258.0568 15.08844172112693,6917.868,95.437,540.655,538.81,0.0
52366.0,STARLINK-3808,PAYLOAD,2024-04-25 02:39:24,15.08855388,0.0001144,53.2193,17.8222,75.4073,284.7046,0.00023976,3.532e-05,0.0,0 STARLINK-3808,1 52366U 22045AM  24116.11070564  .00003532  00000-0  23976-3 0  9996,2 52366  53.2193  17.8222 0001144  75.4073 284.7046 15.08855388112720,6917.833,95.437,540.49,538.907,0.0
52366.0,STARLINK-3808,PAYLOAD,2024-04-25 21:44:02,15.08845568,0.0001411,53.2197,14.2464,91.8526,268.2628,-0.00013408,-2.422e-05,0.0,0 STARLINK-3808,1 52366U 22045AM  24116.90558783 -.00002422  00000-0 -13408-3 0  9995,2 52366  53.2197  14.2464 0001411  91.8526 268.2628 15.08845568112840,6917.863,95.437,540.704,538.752,0.0
52366.0,STARLINK-3808,PAYLOAD,2024-04-26 00:54:49,15.08853631,0.0001531,53.2187,13.6614,66.6211,293.4942,-7.5906e-06,-4.09e-06,0.0,0 STARLINK-3808,1 52366U 22045AM  24117.03807039 -.00000409  00000-0 -75906-5 0  9997,2 52366  53.2187  13.6614 0001531  66.6211 293.4942 15.08853631112864,6917.839,95.437,540.763,538.645,0.0
52366.0,STARLINK-3808,PAYLOAD,2024-04-26 10:27:07,15.08848311,0.0001388,53.2173,11.8806,71.9991,288.1153,-5.5257e-05,-1.167e-05,0.0,0 STARLINK-3808,1 52366U 22045AM  24117.43550659 -.00001167  00000-0 -55257-4 0  9992,2 52366  53.2173  11.8806 0001388  71.9991 288.1153 15.08848311112927,6917.855,95.437,540.68,538.76,0.0
52366.0,STARLINK-3808,PAYLOAD,2024-04-26 23:10:13,15.08845139,0.0001051,53.2192,9.4953,90.2801,269.8311,-3.0068e-05,-7.66e-06,0.0,0 STARLINK-3808,1 52366U 22045AM  24117.96543067 -.00000766  00000-0 -30068-4 0  9992,2 52366  53.2192   9.4953 0001051  90.2801 269.8311 15.08845139113002,6917.865,95.437,540.457,539.003,0.0
52366.0,STARLINK-3808,PAYLOAD,2024-04-27 02:20:57,15.0886657,0.0001299,53.2197,8.9016,86.3732,273.7408,0.00014718,2.057e-05,0.0,0 STARLINK-3808,1 52366U 22045AM  24118.09789204  .00002057  00000-0  14718-3 0  9998,2 52366  53.2197   8.9016 0001299  86.3732 273.7408 15.08866570113029,6917.799,95.436,540.563,538.766,0.0
52366.0,STARLINK-3808,PAYLOAD,2024-04-27 10:17:55,15.08838248,0.0001612,53.2199,7.4147,79.2084,280.909,-8.1412e-05,-1.583e-05,0.0,0 STARLINK-3808,1 52366U 22045AM  24118.42911576 -.00001583  00000-0 -81412-4 0  9995,2 52366  53.2199   7.4147 0001612  79.2084 280.9090 15.08838248113073,6917.886,95.438,540.866,538.636,0.0
52366.0,STARLINK-3808,PAYLOAD,2024-04-27 23:00:59,15.08850718,0.0001223,53.2192,5.0341,88.386,271.7272,-2.1666e-05,-6.33e-06,0.0,0 STARLINK-3808,1 52366U 22045AM  24118.95902732 -.00000633  00000-0 -21666-4 0  9997,2 52366  53.2192   5.0341 0001223  88.3860 271.7272 15.08850718113152,6917.848,95.437,540.559,538.867,0.0
52366.0,STARLINK-3808,PAYLOAD,2024-04-28 02:11:45,15.08854782,0.0001288,53.2183,4.4428,76.1302,283.9833,0.00013002,1.783e-05,0.0,0 STARLINK-3808,1 52366U 22045AM  24119.09150050  .00001783  00000-0  13002-3 0  9990,2 52366  53.2183   4.4428 0001288  76.1302 283.9833 15.08854782113173,6917.835,95.437,540.591,538.809,0.0
52366.0,STARLINK-3808,PAYLOAD,2024-04-28 21:16:24,15.08836995,0.0001366,53.2173,0.8717,101.6578,258.4568,2.342e-05,8.5e-07,0.0,0 STARLINK-3808,1 52366U 22045AM  24119.88639441  .00000085  00000-0  23420-4 0  9993,2 52366  53.2173   0.8717 0001366 101.6578 258.4568 15.08836995113290,6917.89,95.438,540.7,538.81,0.0
52366.0,STARLINK-3808,PAYLOAD,2024-04-28 22:51:47,15.08838542,0.0001253,53.2172,0.5746,93.645,266.4686,4.0907e-05,3.63e-06,0.0,0 STARLINK-3808,1 52366U 22045AM  24119.95263341  .00000363  00000-0  40907-4 0  9991,2 52366  53.2172   0.5746 0001253  93.6450 266.4686 15.08838542113304,6917.885,95.438,540.617,538.883,0.0
52366.0,STARLINK-3808,PAYLOAD,2024-04-29 02:02:33,15.08847745,0.0001226,53.2187,359.9805,90.1254,269.9879,-6.6952e-05,-1.353e-05,0.0,0 STARLINK-3808,1 52366U 22045AM  24120.08511048 -.00001353  00000-0 -66952-4 0  9997,2 52366  53.2187 359.9805 0001226  90.1254 269.9879 15.08847745113320,6917.857,95.437,540.57,538.874,0.0
52366.0,STARLINK-3808,PAYLOAD,2024-04-29 21:07:12,15.08832306,0.0001345,53.2182,356.412,86.1014,274.0132,3.1859e-05,2.19e-06,0.0,0 STARLINK-3808,1 52366U 22045AM  24120.88000074  .00000219  00000-0  31859-4 0  9993,2 52366  53.2182 356.4120 0001345  86.1014 274.0132 15.08832306113447,6917.904,95.438,540.699,538.838,0.0
52366.0,STARLINK-3808,PAYLOAD,2024-04-29 22:42:35,15.08832649,0.0001252,53.2182,356.1172,80.3996,279.7137,7.6786e-05,9.34e-06,0.0,0 STARLINK-3808,1 52366U 22045AM  24120.94623966  .00000934  00000-0  76786-4 0  9993,2 52366  53.2182 356.1172 0001252  80.3996 279.7137 15.08832649113451,6917.903,95.438,540.634,538.902,0.0
52366.0,STARLINK-3808,PAYLOAD,2024-04-30 08:14:53,15.08842681,0.0001236,53.2183,354.3333,82.6764,277.4369,9.4056e-07,-2.73e-06,0.0,0 STARLINK-3808,1 52366U 22045AM  24121.34367523 -.00000273  00000-0  94056-6 0  9991,2 52366  53.2183 354.3333 0001236  82.6764 277.4369 15.08842681113517,6917.872,95.437,540.592,538.882,0.0
52366.0,STARLINK-3808,PAYLOAD,2024-04-30 20:57:59,15.08833949,0.0001307,53.2189,351.9567,99.8724,260.2416,6.4234e-05,7.34e-06,0.0,0 STARLINK-3808,1 52366U 22045AM  24121.87360221  .00000734  00000-0  64234-4 0  9991,2 52366  53.2189 351.9567 0001307  99.8724 260.2416 15.08833949113598,6917.899,95.438,540.668,538.86,0.0
52366.0,STARLINK-3808,PAYLOAD,2024-04-30 22:33:22,15.08834989,0.0001327,53.2189,351.6593,100.5786,259.5355,6.6827e-05,7.76e-06,0.0,0 STARLINK-3808,1 52366U 22045AM  24121.93984161  .00000776  00000-0  66827-4 0  9999,2 52366  53.2189 351.6593 0001327 100.5786 259.5355 15.08834989113604,6917.896,95.438,540.679,538.843,0.0
52366.0,STARLINK-3808,PAYLOAD,2024-05-01 08:05:41,15.08839306,0.0001338,53.2191,349.8749,97.8465,262.268,5.6984e-05,6.19e-06,0.0,0 STARLINK-3808,1 52366U 22045AM  24122.33728030  .00000619  00000-0  56984-4 0  9994,2 52366  53.2191 349.8749 0001338  97.8465 262.2680 15.08839306113669,6917.883,95.438,540.673,538.822,0.0
52366.0,STARLINK-3808,PAYLOAD,2024-05-01 23:59:31,15.08845024,0.0001309,53.2184,346.9005,97.787,262.3271,0.00010845,1.439e-05,0.0,0 STARLINK-3808,1 52366U 22045AM  24122.99967551  .00001439  00000-0  10845-3 0  9995,2 52366  53.2184 346.9005 0001309  97.7870 262.3271 15.08845024113763,6917.865,95.437,540.636,538.824,0.0
52366.0,STARLINK-3808,PAYLOAD,2024-05-02 07:56:27,15.08840287,0.0001178,53.2175,345.4127,92.3911,267.7216,5.4585e-05,5.81e-06,0.0,0 STARLINK-3808,1 52366U 22045AM  24123.33087940  .00000581  00000-0  54585-4 0  9996,2 52366  53.2175 345.4127 0001178  92.3911 267.7216 15.08840287113813,6917.88,95.438,540.559,538.93,0.0
52366.0,STARLINK-3808,PAYLOAD,2024-05-02 23:50:18,15.08849668,0.0001107,53.2167,342.4383,106.997,253.1143,0.00012375,1.683e-05,0.0,0 STARLINK-3808,1 52366U 22045AM  24123.99327089  .00001683  00000-0  12375-3 0  9993,2 52366  53.2167 342.4383 0001107 106.9970 253.1143 15.08849668113915,6917.851,95.437,540.482,538.95,0.0
52366.0,STARLINK-3808,PAYLOAD,2024-05-03 14:08:47,15.08838598,0.0001633,53.2149,339.7609,82.7231,277.3947,-9.6556e-06,-4.42e-06,0.0,0 STARLINK-3808,1 52366U 22045AM  24124.58944412 -.00000442  00000-0 -96556-5 0  9993,2 52366  53.2149 339.7609 0001633  82.7231 277.3947 15.08838598114001,6917.885,95.438,540.879,538.62,0.0
52366.0,STARLINK-3808,PAYLOAD,2024-05-03 20:30:20,15.08833962,0.0001458,53.2173,338.5725,81.5979,278.5179,1.1237e-05,-1.09e-06,0.0,0 STARLINK-3808,1 52366U 22045AM  24124.85440584 -.00000109  00000-0  11237-4 0  9995,2 52366  53.2173 338.5725 0001458  81.5979 278.5179 15.08833962114049,6917.899,95.438,540.772,538.755,0.0
52366.0,STARLINK-3808,PAYLOAD,2024-05-04 20:21:06,15.08849828,0.0001288,53.2178,334.1116,88.4487,271.6653,2.7516e-05,1.5e-06,0.0,0 STARLINK-3808,1 52366U 22045AM  24125.84799633  .00000150  00000-0  27516-4 0  9999,2 52366  53.2178 334.1116 0001288  88.4487 271.6653 15.08849828114196,6917.85,95.437,540.606,538.824,0.0
52366.0,STARLINK-3808,PAYLOAD,2024-05-05 13:50:21,15.08840056,0.0001425,53.2178,330.8409,77.3193,282.7958,0.00012807,1.751e-05,0.0,0 STARLINK-3808,1 52366U 22045AM  24126.57663976  .00001751  00000-0  12807-3 0  9994,2 52366  53.2178 330.8409 0001425  77.3193 282.7958 15.08840056114306,6917.88,95.438,540.731,538.759,0.0
